{"type": "FeatureCollection", "features": [ {"type": "Feature", "properties": {"norad_id": 40228, "name": "COSMOS 2251 DEB", "group": "cosmos-2251-debris", "lat": 41.08527584918655, "lon": 49.36680501919477, "alt_km": 768.380678625188, "timestamp": "2025-12-21T18:54:58.893885+00:00", "meta": {"OBJECT_NAME": "COSMOS 2251 DEB", "OBJECT_ID": "1993-036BVH", "EPOCH": "2025-12-21T01:56:04.156224", "MEAN_MOTION": 14.41008866, "ECCENTRICITY": 0.00242231, "INCLINATION": 74.0544, "RA_OF_ASC_NODE": 245.1093, "ARG_OF_PERICENTER": 305.4166, "MEAN_ANOMALY": 122.2778, "EPHEMERIS_TYPE": 0, "CLASSIFICATION_TYPE": "U", "NORAD_CAT_ID": 40228, "ELEMENT_SET_NO": 999, "REV_AT_EPOCH": 59041, "BSTAR": 0.00020328958, "MEAN_MOTION_DOT": 6.29e-06, "MEAN_MOTION_DDOT": 0}, "tle": {"line1": "1 40228U 93036BVH 25355.08060366  .00000629  00000+0  20329-3 0  9991", "line2": "2 40228  74.0544 245.1093 0024223 305.4166 122.2778 14.41008866590410"}}, "geometry": {"type": "Point", "coordinates": [49.36680501919477, 41.08527584918655]}}, {"type": "Feature", "properties": {"norad_id": 40230, "name": "COSMOS 2251 DEB", "group": "cosmos-2251-debris", "lat": -29.561355480248974, "lon": 39.26384129326909, "alt_km": 725.7836063994, "timestamp": "2025-12-21T18:54:58.893895+00:00", "meta": {"OBJECT_NAME": "COSMOS 2251 DEB", "OBJECT_ID": "1993-036BVK", "EPOCH": "2025-12-20T07:41:52.070784", "MEAN_MOTION": 14.49354869, "ECCENTRICITY": 0.00189754, "INCLINATION": 74.0435, "RA_OF_ASC_NODE": 212.675, "ARG_OF_PERICENTER": 270.0639, "MEAN_ANOMALY": 207.3635, "EPHEMERIS_TYPE": 0, "CLASSIFICATION_TYPE": "U", "NORAD_CAT_ID": 40230, "ELEMENT_SET_NO": 999, "REV_AT_EPOCH": 59081, "BSTAR": 0.00041501757, "MEAN_MOTION_DOT": 1.562e-05, "MEAN_MOTION_DDOT": 0}, "tle": {"line1": "1 40230U 93036BVK 25354.32074156  .00001562  00000+0  41502-3 0  9995", "line2": "2 40230  74.0435 212.6750 0018975 270.0639 207.3635 14.49354869590816"}}, "geometry": {"type": "Point", "coordinates": [39.26384129326909, -29.561355480248974]}}, {"type": "Feature", "properties": {"norad_id": 40233, "name": "COSMOS 2251 DEB", "group": "cosmos-2251-debris", "lat": -27.13660444405781, "lon": 77.29641308716636, "alt_km": 734.9814766431655, "timestamp": "2025-12-21T18:54:58.893904+00:00", "meta": {"OBJECT_NAME": "COSMOS 2251 DEB", "OBJECT_ID": "1993-036BVN", "EPOCH": "2025-12-16T00:45:52.214112", "MEAN_MOTION": 14.58458772, "ECCENTRICITY": 0.0044987, "INCLINATION": 73.9406, "RA_OF_ASC_NODE": 96.8035, "ARG_OF_PERICENTER": 171.0622, "MEAN_ANOMALY": 189.1354, "EPHEMERIS_TYPE": 0, "CLASSIFICATION_TYPE": "U", "NORAD_CAT_ID": 40233, "ELEMENT_SET_NO": 999, "REV_AT_EPOCH": 59185, "BSTAR": 0.00091306486, "MEAN_MOTION_DOT": 4.268e-05, "MEAN_MOTION_DDOT": 0}, "tle": {"line1": "1 40233U 93036BVN 25350.03185433  .00004268  00000+0  91306-3 0  9996", "line2": "2 40233  73.9406  96.8035 0044987 171.0622 189.1354 14.58458772591855"}}, "geometry": {"type": "Point", "coordinates": [77.29641308716636, -27.13660444405781]}}, {"type": "Feature", "properties": {"norad_id": 40236, "name": "COSMOS 2251 DEB", "group": "cosmos-2251-debris", "lat": -11.650143285360645, "lon": 126.00169907274012, "alt_km": 790.1471738035971, "timestamp": "2025-12-21T18:54:58.893914+00:00", "meta": {"OBJECT_NAME": "COSMOS 2251 DEB", "OBJECT_ID": "1993-036BVR", "EPOCH": "2025-12-07T17:52:23.026080", "MEAN_MOTION": 13.24639967, "ECCENTRICITY": 0.05366128, "INCLINATION": 73.5349, "RA_OF_ASC_NODE": 151.6266, "ARG_OF_PERICENTER": 32.3576, "MEAN_ANOMALY": 330.9258, "EPHEMERIS_TYPE": 0, "CLASSIFICATION_TYPE": "U", "NORAD_CAT_ID": 40236, "ELEMENT_SET_NO": 999, "REV_AT_EPOCH": 53558, "BSTAR": 0.0015786255, "MEAN_MOTION_DOT": 1.455e-05, "MEAN_MOTION_DDOT": 0}, "tle": {"line1": "1 40236U 93036BVR 25341.74471095  .00001455  00000+0  15786-2 0  9991", "line2": "2 40236  73.5349 151.6266 0536612  32.3576 330.9258 13.24639967535580"}}, "geometry": {"type": "Point", "coordinates": [126.00169907274012, -11.650143285360645]}}, {"type": "Feature", "properties": {"norad_id": 40238, "name": "COSMOS 2251 DEB", "group": "cosmos-2251-debris", "lat": 67.50564778120487, "lon": -174.19044498884926, "alt_km": 1108.0558755523589, "timestamp": "2025-12-21T18:54:58.893924+00:00", "meta": {"OBJECT_NAME": "COSMOS 2251 DEB", "OBJECT_ID": "1993-036BVT", "EPOCH": "2025-12-13T22:00:17.688960", "MEAN_MOTION": 13.25118761, "ECCENTRICITY": 0.05494159, "INCLINATION": 73.9889, "RA_OF_ASC_NODE": 61.7905, "ARG_OF_PERICENTER": 33.3831, "MEAN_ANOMALY": 330.0665, "EPHEMERIS_TYPE": 0, "CLASSIFICATION_TYPE": "U", "NORAD_CAT_ID": 40238, "ELEMENT_SET_NO": 999, "REV_AT_EPOCH": 54052, "BSTAR": 0.0015955991, "MEAN_MOTION_DOT": 1.546e-05, "MEAN_MOTION_DDOT": 0}, "tle": {"line1": "1 40238U 93036BVT 25347.91687140  .00001546  00000+0  15956-2 0  9998", "line2": "2 40238  73.9889  61.7905 0549415  33.3831 330.0665 13.25118761540524"}}, "geometry": {"type": "Point", "coordinates": [-174.19044498884926, 67.50564778120487]}}, {"type": "Feature", "properties": {"norad_id": 40239, "name": "COSMOS 2251 DEB", "group": "cosmos-2251-debris", "lat": 41.37832463767981, "lon": -86.8824150364336, "alt_km": 634.0052344173819, "timestamp": "2025-12-21T18:54:58.893934+00:00", "meta": {"OBJECT_NAME": "COSMOS 2251 DEB", "OBJECT_ID": "1993-036BVU", "EPOCH": "2025-12-20T12:20:48.690816", "MEAN_MOTION": 14.62025821, "ECCENTRICITY": 0.00852453, "INCLINATION": 74.0316, "RA_OF_ASC_NODE": 260.9453, "ARG_OF_PERICENTER": 10.3713, "MEAN_ANOMALY": 171.3204, "EPHEMERIS_TYPE": 0, "CLASSIFICATION_TYPE": "U", "NORAD_CAT_ID": 40239, "ELEMENT_SET_NO": 999, "REV_AT_EPOCH": 59724, "BSTAR": 0.00026861912, "MEAN_MOTION_DOT": 1.387e-05, "MEAN_MOTION_DDOT": 0}, "tle": {"line1": "1 40239U 93036BVU 25354.51445244  .00001387  00000+0  26862-3 0  9992", "line2": "2 40239  74.0316 260.9453 0085245  10.3713 171.3204 14.62025821597245"}}, "geometry": {"type": "Point", "coordinates": [-86.8824150364336, 41.37832463767981]}}, {"type": "Feature", "properties": {"norad_id": 40792, "name": "COSMOS 2251 DEB", "group": "cosmos-2251-debris", "lat": 27.63201668429484, "lon": 38.60427776351588, "alt_km": 669.4386267128548, "timestamp": "2025-12-21T18:54:58.893944+00:00", "meta": {"OBJECT_NAME": "COSMOS 2251 DEB", "OBJECT_ID": "1993-036BVV", "EPOCH": "2025-12-21T09:02:29.575680", "MEAN_MOTION": 14.67648102, "ECCENTRICITY": 0.00147404, "INCLINATION": 74.0452, "RA_OF_ASC_NODE": 30.785, "ARG_OF_PERICENTER": 133.0098, "MEAN_ANOMALY": 243.0806, "EPHEMERIS_TYPE": 0, "CLASSIFICATION_TYPE": "U", "NORAD_CAT_ID": 40792, "ELEMENT_SET_NO": 999, "REV_AT_EPOCH": 63311, "BSTAR": 0.00064575886, "MEAN_MOTION_DOT": 3.648e-05, "MEAN_MOTION_DDOT": 0}, "tle": {"line1": "1 40792U 93036BVV 25355.37673120  .00003648  00000+0  64576-3 0  9993", "line2": "2 40792  74.0452  30.7850 0014740 133.0098 243.0806 14.67648102633115"}}, "geometry": {"type": "Point", "coordinates": [38.60427776351588, 27.63201668429484]}}, {"type": "Feature", "properties": {"norad_id": 40794, "name": "COSMOS 2251 DEB", "group": "cosmos-2251-debris", "lat": -9.741148232417638, "lon": -71.1974846910622, "alt_km": 584.8617923472029, "timestamp": "2025-12-21T18:54:58.893954+00:00", "meta": {"OBJECT_NAME": "COSMOS 2251 DEB", "OBJECT_ID": "1993-036BVX", "EPOCH": "2025-12-13T15:37:41.141568", "MEAN_MOTION": 14.93159868, "ECCENTRICITY": 0.00107848, "INCLINATION": 73.9763, "RA_OF_ASC_NODE": 122.399, "ARG_OF_PERICENTER": 261.0962, "MEAN_ANOMALY": 116.104, "EPHEMERIS_TYPE": 0, "CLASSIFICATION_TYPE": "U", "NORAD_CAT_ID": 40794, "ELEMENT_SET_NO": 999, "REV_AT_EPOCH": 61938, "BSTAR": 0.0047306735, "MEAN_MOTION_DOT": 0.00049759, "MEAN_MOTION_DDOT": 0}, "tle": {"line1": "1 40794U 93036BVX 25347.65117062  .00049759  00000+0  47307-2 0  9990", "line2": "2 40794  73.9763 122.3990 0010784 261.0962 116.1040 14.93159868619387"}}, "geometry": {"type": "Point", "coordinates": [-71.1974846910622, -9.741148232417638]}}, {"type": "Feature", "properties": {"norad_id": 40796, "name": "COSMOS 2251 DEB", "group": "cosmos-2251-debris", "lat": -26.040127322309786, "lon": -47.654740901037634, "alt_km": 604.6184660023164, "timestamp": "2025-12-21T18:54:58.893964+00:00", "meta": {"OBJECT_NAME": "COSMOS 2251 DEB", "OBJECT_ID": "1993-036BVZ", "EPOCH": "2025-12-18T03:16:26.396832", "MEAN_MOTION": 14.81774084, "ECCENTRICITY": 0.00561198, "INCLINATION": 74.0119, "RA_OF_ASC_NODE": 131.5134, "ARG_OF_PERICENTER": 267.2185, "MEAN_ANOMALY": 268.2913, "EPHEMERIS_TYPE": 0, "CLASSIFICATION_TYPE": "U", "NORAD_CAT_ID": 40796, "ELEMENT_SET_NO": 999, "REV_AT_EPOCH": 76238, "BSTAR": 0.00073722049, "MEAN_MOTION_DOT": 5.947e-05, "MEAN_MOTION_DDOT": 0}, "tle": {"line1": "1 40796U 93036BVZ 25352.13641663  .00005947  00000+0  73722-3 0  9992", "line2": "2 40796  74.0119 131.5134 0056119 267.2185 268.2913 14.81774084762382"}}, "geometry": {"type": "Point", "coordinates": [-47.654740901037634, -26.040127322309786]}}, {"type": "Feature", "properties": {"norad_id": 40797, "name": "COSMOS 2251 DEB", "group": "cosmos-2251-debris", "lat": 17.68022654145232, "lon": -108.81829843891927, "alt_km": 581.4488157148207, "timestamp": "2025-12-21T18:54:58.893973+00:00", "meta": {"OBJECT_NAME": "COSMOS 2251 DEB", "OBJECT_ID": "1993-036BWA", "EPOCH": "2025-12-19T23:18:49.497408", "MEAN_MOTION": 15.11460635, "ECCENTRICITY": 0.0072123, "INCLINATION": 73.9226, "RA_OF_ASC_NODE": 80.2397, "ARG_OF_PERICENTER": 350.3044, "MEAN_ANOMALY": 9.675, "EPHEMERIS_TYPE": 0, "CLASSIFICATION_TYPE": "U", "NORAD_CAT_ID": 40797, "ELEMENT_SET_NO": 999, "REV_AT_EPOCH": 64753, "BSTAR": 0.0004453, "MEAN_MOTION_DOT": 7.981e-05, "MEAN_MOTION_DDOT": 0}, "tle": {"line1": "1 40797U 93036BWA 25353.97140622  .00007981  00000+0  44530-3 0  9990", "line2": "2 40797  73.9226  80.2397 0072123 350.3044   9.6750 15.11460635647535"}}, "geometry": {"type": "Point", "coordinates": [-108.81829843891927, 17.68022654145232]}}]}